{
    "links": {
        "self": "http://www.neowsapp.com/rest/v1/neo/3698534?api_key=iIulBulltgU6a56xZRHN4H3l9WmuAYTsLGpBGhQ2"
    },
    "id": "3698534",
    "neo_reference_id": "3698534",
    "name": "(2014 HG198)",
    "designation": "2014 HG198",
    "nasa_jpl_url": "http://ssd.jpl.nasa.gov/sbdb.cgi?sstr=3698534",
    "absolute_magnitude_h": 27.1,
    "estimated_diameter": {
        "kilometers": {
            "estimated_diameter_min": 0.0101054342,
            "estimated_diameter_max": 0.0225964377
        },
        "meters": {
            "estimated_diameter_min": 10.1054341542,
            "estimated_diameter_max": 22.5964377109
        },
        "miles": {
            "estimated_diameter_min": 0.0062792237,
            "estimated_diameter_max": 0.0140407711
        },
        "feet": {
            "estimated_diameter_min": 33.1543125905,
            "estimated_diameter_max": 74.1352966996
        }
    },
    "is_potentially_hazardous_asteroid": false,
    "close_approach_data": [
        {
            "close_approach_date": "2014-05-03",
            "close_approach_date_full": "2014-May-03 04:07",
            "epoch_date_close_approach": 1399090020000,
            "relative_velocity": {
                "kilometers_per_second": "6.7068274007",
                "kilometers_per_hour": "24144.5786423412",
                "miles_per_hour": "15002.5022125147"
            },
            "miss_distance": {
                "astronomical": "0.0708898701",
                "lunar": "27.5761594689",
                "kilometers": "10604973.571536687",
                "miles": "6589625.0123808006"
            },
            "orbiting_body": "Earth"
        }
    ],
    "orbital_data": {
        "orbit_id": "4",
        "orbit_determination_date": "2017-04-06 08:40:52",
        "first_observation_date": "2014-04-25",
        "last_observation_date": "2014-04-29",
        "data_arc_in_days": 4,
        "observations_used": 12,
        "orbit_uncertainty": "9",
        "minimum_orbit_intersection": ".0681232",
        "jupiter_tisserand_invariant": "3.970",
        "epoch_osculation": "2456774.5",
        "eccentricity": ".4039300651099356",
        "semi_major_axis": "1.790243391940492",
        "inclination": "7.684919735161522",
        "ascending_node_longitude": "33.5403802368362",
        "orbital_period": "874.9163770291252",
        "perihelion_distance": "1.067110262071337",
        "perihelion_argument": "200.5189859704518",
        "aphelion_distance": "2.513376521809647",
        "perihelion_time": "2456790.649721588762",
        "mean_anomaly": "353.354908052246",
        "mean_motion": ".4114678950489183",
        "equinox": "J2000",
        "orbit_class": {
            "orbit_class_type": "AMO",
            "orbit_class_description": "Near-Earth asteroid orbits similar to that of 1221 Amor",
            "orbit_class_range": "1.017 AU < q (perihelion) < 1.3 AU"
        }
    },
    "is_sentry_object": false
}